NORAD_CAT_ID,OBJECT_NAME,OBJECT_TYPE,EPOCH,MEAN_MOTION,ECCENTRICITY,INCLINATION,RA_OF_ASC_NODE,ARG_OF_PERICENTER,MEAN_ANOMALY,BSTAR,MEAN_MOTION_DOT,MEAN_MOTION_DDOT,TLE_LINE0,TLE_LINE1,TLE_LINE2,SEMIMAJOR_AXIS,PERIOD,APOGEE,PERIGEE,DECAYED
49766.0,STARLINK-3190,PAYLOAD,2024-04-21 21:04:05,15.08834469,9.74e-05,53.2176,342.3469,84.9969,275.1134,-0.00036666,-6.117e-05,0.0,0 STARLINK-3190,1 49766U 21115AU  24112.87784474 -.00006117  00000-0 -36666-3 0  9998,2 49766  53.2176 342.3469 0000974  84.9969 275.1134 15.08834469133103,6917.897,95.438,540.436,539.088,0.0
49766.0,STARLINK-3190,PAYLOAD,2024-04-21 22:39:29,15.0881218,0.0001742,53.2178,342.0567,51.6044,308.5104,-0.0004302,-7.123e-05,0.0,0 STARLINK-3190,1 49766U 21115AU  24112.94409061 -.00007123  00000-0 -43020-3 0  9992,2 49766  53.2178 342.0567 0001742  51.6044 308.5104 15.08812180132002,6917.965,95.439,541.036,538.625,0.0
49766.0,STARLINK-3190,PAYLOAD,2024-04-22 00:14:52,15.08810648,0.0001116,53.2172,341.7571,87.4101,272.7019,0.00025362,3.748e-05,0.0,0 STARLINK-3190,1 49766U 21115AU  24113.01032887  .00003748  00000-0  25362-3 0  9995,2 49766  53.2172 341.7571 0001116  87.4101 272.7019 15.08810648133121,6917.97,95.439,540.607,539.063,0.0
49766.0,STARLINK-3190,PAYLOAD,2024-04-22 20:54:55,15.08812679,0.0001329,53.2173,337.8915,93.4946,266.6198,0.00078697,0.0001225,0.0,0 STARLINK-3190,1 49766U 21115AU  24113.87147108  .00012250  00000-0  78697-3 0  9999,2 49766  53.2173 337.8915 0001329  93.4946 266.6198 15.08812679133250,6917.964,95.439,540.748,538.91,0.0
49766.0,STARLINK-3190,PAYLOAD,2024-04-22 22:30:18,15.08812559,0.000112,53.2165,337.5928,98.8842,261.2277,0.00065438,0.00010134,0.0,0 STARLINK-3190,1 49766U 21115AU  24113.93771137  .00010134  00000-0  65438-3 0  9999,2 49766  53.2165 337.5928 0001120  98.8842 261.2277 15.08812559132159,6917.964,95.439,540.604,539.054,0.0
49766.0,STARLINK-3190,PAYLOAD,2024-04-23 00:05:41,15.08813426,0.0001133,53.2163,337.2948,90.1156,269.9966,0.00062627,9.686e-05,0.0,0 STARLINK-3190,1 49766U 21115AU  24114.00395281  .00009686  00000-0  62627-3 0  9997,2 49766  53.2163 337.2948 0001133  90.1156 269.9966 15.08813426132168,6917.962,95.439,540.61,539.043,0.0
49766.0,STARLINK-3190,PAYLOAD,2024-04-23 22:21:05,15.0884851,0.0001673,53.2169,333.1362,57.1059,303.0094,0.0010083,0.00015799,0.0,0 STARLINK-3190,1 49766U 21115AU  24114.93131859  .00015799  00000-0  10083-2 0  9998,2 49766  53.2169 333.1362 0001673  57.1059 303.0094 15.08848510132303,6917.854,95.437,540.877,538.562,0.0
49766.0,STARLINK-3190,PAYLOAD,2024-04-24 20:36:29,15.08850024,0.0001588,53.2181,328.9689,64.1957,295.9199,0.00030131,4.512e-05,0.0,0 STARLINK-3190,1 49766U 21115AU  24115.85867388  .00004512  00000-0  30131-3 0  9991,2 49766  53.2181 328.9689 0001588  64.1957 295.9199 15.08850024133557,6917.85,95.437,540.813,538.616,0.0
49766.0,STARLINK-3190,PAYLOAD,2024-04-24 23:47:15,15.08851837,0.0001565,53.2186,328.3706,67.1858,292.93,0.0003621,5.481e-05,0.0,0 STARLINK-3190,1 49766U 21115AU  24115.99115248  .00005481  00000-0  36210-3 0  9997,2 49766  53.2186 328.3706 0001565  67.1858 292.9300 15.08851837132467,6917.844,95.437,540.792,538.627,0.0
49766.0,STARLINK-3190,PAYLOAD,2024-04-25 20:27:15,15.08848585,0.000114,53.218,324.4996,96.972,263.1402,-1.6984e-05,-5.58e-06,0.0,0 STARLINK-3190,1 49766U 21115AU  24116.85226797 -.00000558  00000-0 -16984-4 0  9994,2 49766  53.2180 324.4996 0001140  96.9720 263.1402 15.08848585133703,6917.854,95.437,540.508,538.931,0.0
49766.0,STARLINK-3190,PAYLOAD,2024-04-26 13:56:30,15.08839616,0.0001208,53.218,321.229,100.1427,259.9702,2.7047e-05,1.43e-06,0.0,0 STARLINK-3190,1 49766U 21115AU  24117.58091094  .00000143  00000-0  27047-4 0  9995,2 49766  53.2180 321.2290 0001208 100.1427 259.9702 15.08839616132702,6917.882,95.438,540.582,538.911,0.0
49766.0,STARLINK-3190,PAYLOAD,2024-04-26 20:18:03,15.08844033,0.0001137,53.2181,320.0417,75.3902,284.7216,5.0309e-05,5.13e-06,0.0,0 STARLINK-3190,1 49766U 21115AU  24117.84586985  .00000513  00000-0  50309-4 0  9990,2 49766  53.2181 320.0417 0001137  75.3902 284.7216 15.08844033133855,6917.868,95.437,540.52,538.947,0.0
49766.0,STARLINK-3190,PAYLOAD,2024-04-27 05:50:20,15.08860309,0.0001113,53.2193,318.2633,88.9278,271.1842,0.00014282,1.987e-05,0.0,0 STARLINK-3190,1 49766U 21115AU  24118.24329746  .00001987  00000-0  14282-3 0  9990,2 49766  53.2193 318.2633 0001113  88.9278 271.1842 15.08860309133913,6917.818,95.436,540.453,538.913,0.0
49766.0,STARLINK-3190,PAYLOAD,2024-04-27 20:08:51,15.0882777,0.0001123,53.2186,315.5901,99.9054,260.2065,-2.2342e-05,-6.43e-06,0.0,0 STARLINK-3190,1 49766U 21115AU  24118.83948245 -.00000643  00000-0 -22342-4 0  9993,2 49766  53.2186 315.5901 0001123  99.9054 260.2065 15.08827770134000,6917.918,95.438,540.56,539.006,0.0
49766.0,STARLINK-3190,PAYLOAD,2024-04-28 05:41:09,15.08838372,0.0001261,53.2195,313.8072,102.4895,257.6238,8.0788e-05,9.98e-06,0.0,0 STARLINK-3190,1 49766U 21115AU  24119.23691549  .00000998  00000-0  80788-4 0  9999,2 49766  53.2195 313.8072 0001261 102.4895 257.6238 15.08838372134064,6917.885,95.438,540.623,538.878,0.0
49766.0,STARLINK-3190,PAYLOAD,2024-04-28 19:59:38,15.0883002,0.0001156,53.2193,311.1296,104.0896,256.0225,7.2696e-05,8.69e-06,0.0,0 STARLINK-3190,1 49766U 21115AU  24119.83308166  .00000869  00000-0  72696-4 0  9991,2 49766  53.2193 311.1296 0001156 104.0896 256.0225 15.08830020134154,6917.911,95.438,540.576,538.976,0.0
49766.0,STARLINK-3190,PAYLOAD,2024-04-28 21:35:01,15.0883238,0.0001147,53.2196,310.8313,98.4199,261.6923,8.1113e-05,1.003e-05,0.0,0 STARLINK-3190,1 49766U 21115AU  24119.89932022  .00001003  00000-0  81113-4 0  9996,2 49766  53.2196 310.8313 0001147  98.4199 261.6923 15.08832380133051,6917.904,95.438,540.562,538.975,0.0
49766.0,STARLINK-3190,PAYLOAD,2024-04-29 05:31:55,15.08850208,0.0001186,53.2192,309.3435,94.6662,265.4466,5.1403e-05,5.31e-06,0.0,0 STARLINK-3190,1 49766U 21115AU  24120.23050864  .00000531  00000-0  51403-4 0  9995,2 49766  53.2192 309.3435 0001186  94.6662 265.4466 15.08850208134213,6917.849,95.437,540.535,538.894,0.0
49766.0,STARLINK-3190,PAYLOAD,2024-04-29 19:50:26,15.08825652,0.0001308,53.2182,306.6656,98.9388,261.1753,1.3506e-05,-7.3e-07,0.0,0 STARLINK-3190,1 49766U 21115AU  24120.82669461 -.00000073  00000-0  13506-4 0  9993,2 49766  53.2182 306.6656 0001308  98.9388 261.1753 15.08825652134302,6917.924,95.438,540.694,538.884,0.0
49766.0,STARLINK-3190,PAYLOAD,2024-04-30 05:22:44,15.08839607,0.0001439,53.2193,304.8843,97.0271,263.0885,0.00010488,1.382e-05,0.0,0 STARLINK-3190,1 49766U 21115AU  24121.22412566  .00001382  00000-0  10488-3 0  9998,2 49766  53.2193 304.8843 0001439  97.0271 263.0885 15.08839607134366,6917.882,95.438,540.742,538.751,0.0
49766.0,STARLINK-3190,PAYLOAD,2024-04-30 19:41:11,15.08853414,0.0001167,53.2178,302.2044,85.8533,274.2593,0.00015384,2.162e-05,0.0,0 STARLINK-3190,1 49766U 21115AU  24121.82027512  .00002162  00000-0  15384-3 0  9994,2 49766  53.2178 302.2044 0001167  85.8533 274.2593 15.08853414134450,6917.839,95.437,540.512,538.897,0.0
49766.0,STARLINK-3190,PAYLOAD,2024-04-30 21:16:34,15.0885541,0.0001179,53.2179,301.9069,85.8814,274.2312,0.00017286,2.465e-05,0.0,0 STARLINK-3190,1 49766U 21115AU  24121.88651330  .00002465  00000-0  17286-3 0  9990,2 49766  53.2179 301.9069 0001179  85.8814 274.2312 15.08855410133354,6917.833,95.437,540.514,538.883,0.0
49766.0,STARLINK-3190,PAYLOAD,2024-05-01 11:35:04,15.08825198,0.0001577,53.2183,299.2317,92.9485,267.1688,0.00021994,3.213e-05,0.0,0 STARLINK-3190,1 49766U 21115AU  24122.48269115  .00003213  00000-0  21994-3 0  9996,2 49766  53.2183 299.2317 0001577  92.9485 267.1688 15.08825198134559,6917.926,95.438,540.882,538.7,0.0
49766.0,STARLINK-3190,PAYLOAD,2024-05-01 21:07:22,15.08841968,0.0001468,53.2163,297.448,113.4899,246.6248,0.00010722,1.419e-05,0.0,0 STARLINK-3190,1 49766U 21115AU  24122.88012445  .00001419  00000-0  10722-3 0  9995,2 49766  53.2163 297.4480 0001468 113.4899 246.6248 15.08841968134619,6917.874,95.437,540.755,538.724,0.0
49766.0,STARLINK-3190,PAYLOAD,2024-05-02 05:04:17,15.08853161,0.0001451,53.2175,295.9603,92.5579,267.558,0.00011762,1.585e-05,0.0,0 STARLINK-3190,1 49766U 21115AU  24123.21131550  .00001585  00000-0  11762-3 0  9991,2 49766  53.2175 295.9603 0001451  92.5579 267.5580 15.08853161134660,6917.84,95.437,540.709,538.701,0.0
49766.0,STARLINK-3190,PAYLOAD,2024-05-02 17:47:22,15.08849734,0.000162,53.2176,293.58,97.6268,262.4908,-4.1621e-05,-9.51e-06,0.0,0 STARLINK-3190,1 49766U 21115AU  24123.74123809 -.00000951  00000-0 -41621-4 0  9993,2 49766  53.2176 293.5800 0001620  97.6268 262.4908 15.08849734134741,6917.851,95.437,540.836,538.595,0.0
49766.0,STARLINK-3190,PAYLOAD,2024-05-03 14:27:24,15.08829644,0.0001517,53.216,289.7151,101.3515,258.7647,4.6722e-06,-2.14e-06,0.0,0 STARLINK-3190,1 49766U 21115AU  24124.60236672 -.00000214  00000-0  46722-5 0  9991,2 49766  53.2160 289.7151 0001517 101.3515 258.7647 15.08829644133760,6917.912,95.438,540.826,538.728,0.0
49766.0,STARLINK-3190,PAYLOAD,2024-05-03 20:48:56,15.08834317,0.0001452,53.2174,288.526,98.3058,261.8099,-4.982e-05,-1.081e-05,0.0,0 STARLINK-3190,1 49766U 21115AU  24124.86732236 -.00001081  00000-0 -49820-4 0  9991,2 49766  53.2174 288.5260 0001452  98.3058 261.8099 15.08834317134915,6917.898,95.438,540.767,538.758,0.0
49766.0,STARLINK-3190,PAYLOAD,2024-05-05 03:01:15,15.08852347,0.000133,53.2172,282.8777,92.5526,267.5619,0.00038668,5.873e-05,0.0,0 STARLINK-3190,1 49766U 21115AU  24126.12587853  .00005873  00000-0  38668-3 0  9993,2 49766  53.2172 282.8777 0001330  92.5526 267.5619 15.08852347135100,6917.843,95.437,540.628,538.788,0.0
49766.0,STARLINK-3190,PAYLOAD,2024-05-05 10:58:12,15.08841918,0.0001798,53.2171,281.39,92.6938,267.426,0.00025046,3.7e-05,0.0,0 STARLINK-3190,1 49766U 21115AU  24126.45708453  .00003700  00000-0  25046-3 0  9993,2 49766  53.2171 281.3900 0001798  92.6938 267.4260 15.08841918135155,6917.875,95.437,540.983,538.496,0.0
